CUTE-1 (CO-55)          
1 27844U 03031E   25165.52804564  .00000297  00000+0  14848-3 0  9990
2 27844  98.6752 173.7375 0009887 165.9365 194.2091 14.24000390139343
CUBESAT XI-IV (CO-57)   
1 27848U 03031J   25165.54905871  .00000244  00000+0  12699-3 0  9993
2 27848  98.6780 173.7601 0009401 182.9411 177.1714 14.23334493139078
CUBESAT XI-V            
1 28895U 05043F   25165.34764953  .00001440  00000+0  24274-3 0  9994
2 28895  98.2507 309.7573 0013257 293.7885  66.1931 14.71030013 47646
CUTE-1.7+APD II (CO-65) 
1 32785U 08021C   25165.59352000  .00005089  00000+0  36781-3 0  9998
2 32785  97.7861 136.7931 0009490 186.0254 174.0859 15.04479776929838
CANX-2                  
1 32790U 08021H   25165.43332425  .00003513  00000+0  27420-3 0  9996
2 32790  97.8226 135.2242 0011937 181.3372 178.7822 15.01762940929541
SEEDS II (CO-66)        
1 32791U 08021J   25165.51326494  .00010714  00000+0  51760-3 0  9990
2 32791  97.7274 145.6642 0005167 132.0127 228.1548 15.18820819931245
SWISSCUBE               
1 35932U 09051B   25165.42345511  .00001091  00000+0  23063-3 0  9998
2 35932  98.4300  61.7492 0005606 280.5063  79.5505 14.61349459835427
BEESAT-1                
1 35933U 09051C   25165.26277752  .00000918  00000+0  19818-3 0  9992
2 35933  98.4233  61.9314 0004219 299.5717  60.5062 14.60761313835450
ITUPSAT1                
1 35935U 09051E   25165.42064088  .00000844  00000+0  18786-3 0  9999
2 35935  98.4326  61.6288 0006564 306.0535  54.0056 14.59558387835071
TISAT 1                 
1 36799U 10035E   25165.27638519  .00013105  00000+0  67098-3 0  9995
2 36799  98.0589  79.6237 0005194  85.2217 274.9607 15.16743803811680
AEROCUBE 4.5A           
1 38767U 12048K   25165.28820283  .00023048  00000+0  60580-3 0  9996
2 38767  64.6455 209.6934 0099312 274.5579  84.4214 15.33638846315547
STRAND-1                
1 39090U 13009E   25165.48038069  .00000288  00000+0  11195-3 0  9998
2 39090  98.3826 350.0479 0007545 247.1850 112.8540 14.36822226644253
BRITE-AUSTRIA           
1 39091U 13009F   25165.48764995  .00000162  00000+0  69936-4 0  9991
2 39091  98.3882 349.3077 0009022 256.7249 103.2931 14.36312874644263
NEE-01 PEGASO           
1 39151U 13018B   25165.34946670  .00002667  00000+0  27651-3 0  9994
2 39151  98.0745 294.3052 0012084 296.4633  63.5344 14.90853491655844
POPACS 1                
1 39268U 13055D   25165.20174647  .00069202  40886-6  60414-3 0  9991
2 39268  80.9709  81.2300 0234400 328.3664  30.3660 15.40976254616815
POPACS 2                
1 39269U 13055E   25165.05515924  .00016485  00000+0  32626-3 0  9998
2 39269  80.9950 200.6472 0474730 283.0395  71.8236 14.76005747608639
POPACS 3                
1 39270U 13055F   25165.53926854  .00012613  00000+0  31508-3 0  9998
2 39270  81.0052 265.3181 0584378 103.2269 263.4761 14.48103584585200
ZACUBE-1 (TSHEPISOSAT)  
1 39417U 13066B   25165.39989749  .00005305  00000+0  46032-3 0  9997
2 39417  97.7802 122.3871 0045024  37.4279 323.0063 14.96693756625635
WNISAT-1                
1 39423U 13066H   25165.53768922  .00000512  00000+0  10395-3 0  9996
2 39423  97.6780 337.0471 0164298 310.1251  48.5649 14.57110177613176
TRITON-1                
1 39427U 13066M   25165.54484282  .00003450  00000+0  43925-3 0  9994
2 39427  97.8368  79.1926 0094283 351.4195   8.5400 14.79103171619698
GOMX-1                  
1 39430U 13066Q   25165.59935975  .00001937  00000+0  30628-3 0  9997
2 39430  97.6827  23.9560 0132463 175.7343 184.5026 14.67655201615964
CUBEBUG-2 (LO-74)       
1 39440U 13066AA  25165.51296525  .00003423  00000+0  34847-3 0  9990
2 39440  97.8500 110.0391 0062396 162.3641 197.9763 14.89961727622179
NEE-02 KRYSAOR          
1 39441U 13066AB  25165.57354967  .00001586  00000+0  18763-3 0  9999
2 39441  97.8559 103.8579 0068442 192.6584 167.2915 14.84382928621625
FUNCUBE-1 (AO-73)       
1 39444U 13066AE  25165.34238367  .00007879  00000+0  58775-3 0  9990
2 39444  97.7840 127.2758 0042689  14.3225 345.9198 15.02405206624308
UWE-3                   
1 39446U 13066AG  25165.29540789  .00004173  00000+0  39604-3 0  9994
2 39446  97.8249 116.1922 0054894 102.9675 257.7682 14.92933716622618
BRITE-CA1 (TORONTO)     
1 40020U 14033L   25165.39992566  .00000783  00000+0  12774-3 0  9996
2 40020  97.9267 297.4880 0080365  15.2152 345.1445 14.71635640588109
DUCHIFAT-1              
1 40021U 14033M   25165.49999267  .00017285  00000+0  61989-3 0  9990
2 40021  98.0940 180.2650 0006674 304.6994  55.3614 15.28774314599075
NANOSATC-BR1            
1 40024U 14033Q   25165.54786590  .00011818  00000+0  57645-3 0  9992
2 40024  98.0898 163.8173 0005401  38.1062 322.0551 15.18471058597967
QB50P1                  
1 40025U 14033R   25165.51058087  .00007921  00000+0  48344-3 0  9999
2 40025  98.0826 148.3766 0011508  45.7835 314.4336 15.10561989597389
QB50P2                  
1 40032U 14033Y   25165.48579743  .00006301  00000+0  40910-3 0  9992
2 40032  98.0432 137.1896 0008248 355.8902   4.2256 15.08407159597118
PERSEUS-M2              
1 40037U 14033AD  25165.59423685  .00001800  00000+0  17524-3 0  9996
2 40037  97.9562 105.2131 0013962  78.9748 281.3041 14.93753052595873
PERSEUS-M1              
1 40039U 14033AF  25165.58050451  .00001826  00000+0  17773-3 0  9998
2 40039  97.9298 100.1373 0013629  77.8165 282.4580 14.93737882595721
POLYITAN-1              
1 40042U 14033AJ  25165.50704971  .00012816  00000+0  61940-3 0  9993
2 40042  98.1029 156.1665 0009296 355.1588   4.9553 15.18745559597537
TIGRISAT                
1 40043U 14033AK  25165.39242557  .00002506  00000+0  30812-3 0  9997
2 40043  97.7364 320.5176 0051025 198.7283 161.2055 14.82974410591076
AEROCUBE 6A             
1 40045U 14033AM  25165.42574341  .00006963  00000+0  67366-3 0  9997
2 40045  97.6936 333.5941 0043659 161.9012 198.3773 14.92354463591666
AEROCUBE 6B             
1 40046U 14033AN  25165.41653025  .00007788  00000+0  73124-3 0  9999
2 40046  97.6915 332.7209 0042516 155.2901 205.0368 14.93536607591755
CANX-4                  
1 40055U 14034C   25165.55216298  .00000993  00000+0  13788-3 0  9993
2 40055  98.3619  21.4830 0014258 109.5272 250.7480 14.80231592590124
CANX-5                  
1 40056U 14034D   25165.55451712  .00000994  00000+0  13799-3 0  9999
2 40056  98.3621  21.5078 0014253 109.6997 250.5753 14.80245260580939
UKUBE-1                 
1 40074U 14037F   25165.48460061  .00007596  00000+0  53242-3 0  9993
2 40074  98.3949 128.2194 0001719  38.7786 321.3562 15.05532147593083
BRITE-PL2 (HEWELIUSZ)   
1 40119U 14049B   25165.24615081  .00002606  00000+0  25867-3 0  9993
2 40119  97.8913 270.4910 0013210 246.3954 113.5878 14.92585136586520
AEROCUBE 5C             
1 40965U 15058B   25165.51322851  .00004419  00000+0  38318-3 0  9992
2 40965  64.7693 323.9973 0164064 198.8996 160.5982 14.88562360310871
AEROCUBE 7              
1 40966U 15058C   25165.56859255  .00006179  00000+0  49624-3 0  9998
2 40966  64.7653 312.9554 0155806 198.8420 160.6890 14.91844326311045
FOX-1A (AO-85)          
1 40967U 15058D   25165.50558675  .00004203  00000+0  37421-3 0  9993
2 40967  64.7768 339.1789 0160424 193.8989 165.7683 14.88057465 58805
SINOD-D 1               
1 40968U 15058E   25165.50844533  .00006136  00000+0  50069-3 0  9995
2 40968  64.7774 326.8896 0150095 192.9228 166.8023 14.91881328 61737
SNAP-3 ALICE            
1 40970U 15058G   25165.53267521  .00027830  00000+0  11345-2 0  9994
2 40970  64.7656 248.8616 0084626 194.4742 165.3961 15.21086028 60424
LMRST-SAT               
1 40971U 15058H   25165.44517008  .00004123  00000+0  36735-3 0  9994
2 40971  64.7771 335.1022 0162736 195.3839 164.2295 14.87805972 58793
SNAP-3 EDDIE            
1 40972U 15058J   25165.51376546  .00025075  00000+0  99755-3 0  9993
2 40972  64.7571 241.4678 0089858 196.2940 163.5295 15.21517580 62537
PROPCUBE 3              
1 40973U 15058K   25165.56620249  .00005358  00000+0  44317-3 0  9997
2 40973  64.7706 318.1676 0157320 197.2479 162.3255 14.90772516 59936
BISONSAT                
1 40974U 15058L   25165.51863914  .00013772  00000+0  80782-3 0  9996
2 40974  64.7638 272.9494 0119981 195.9348 163.7986 15.06063398 60068
SNAP-3 JIMI             
1 40975U 15058M   25165.54287506  .00008598  00000+0  62085-3 0  9993
2 40975  64.7682 298.2070 0141960 196.5172 163.1296 14.96849562 59095
PROPCUBE 1 (FLORA)      
1 40976U 15058N   25165.54311822  .00003407  00000+0  31771-3 0  9995
2 40976  64.7758 352.3912 0162303 197.0716 162.4898 14.86495012 61562
SINOD-D 3               
1 40977U 15058P   25165.57076248  .00005104  00000+0  43550-3 0  9993
2 40977  64.7743 340.5617 0152213 196.4156 163.1999 14.90239892 59900
HORYU-4                 
1 41340U 16012D   25165.15318910  .00022775  00000+0  60396-3 0  9998
2 41340  30.9963 101.1785 0005700 106.8484 253.2787 15.37074087513498
RAVAN                   
1 41849U 16067B   25165.54997852  .00014110  00000+0  48167-3 0  9999
2 41849  98.0434  14.9666 0008416 211.1629 148.9112 15.30420073471103
CELTEE 1                
1 41850U 16067C   25165.52004547  .00004879  00000+0  26777-3 0  9993
2 41850  98.1056   2.4193 0002385  77.8326 282.3171 15.14668265470132
OPTICUBE 04             
1 41851U 16067D   25165.46679951  .00003156  00000+0  21338-3 0  9999
2 41851  98.0927 353.5119 0015144 280.0877  79.8641 15.07276191469733
AEROCUBE 8D             
1 41852U 16067E   25165.53630219  .00006492  00000+0  32585-3 0  9994
2 41852  98.1092   3.6343 0003218 341.5248  18.5866 15.17689120470185
AEROCUBE 8C             
1 41853U 16067F   25165.54165289  .00006933  00000+0  34643-3 0  9993
2 41853  98.0939   1.4241 0004887 240.4633 119.6112 15.17814993470170
PROMETHEUS 2-1          
1 41854U 16067G   25165.51684250  .00035760  00000+0  66302-3 0  9992
2 41854  98.0749  19.4403 0005703 216.2655 143.8207 15.48882598471177
